{
  "norad_id": 67214,
  "name": "STARLINK-36203",
  "history": [
    {
      "epoch": "2026-03-28T19:20:46.491360Z",
      "apogee_km": 575.3511057012493,
      "perigee_km": 568.7257814579016,
      "latitude_deg": -1.6395486765741035e-05,
      "longitude_deg": 10.021522019206023,
      "height_km": 574.5767934670497,
      "semi_major_axis_km": 6950.175443579575,
      "eccentricity": 0.00047663,
      "inclination_deg": 70.0016,
      "raan_deg": 126.4365,
      "arg_perigee_deg": 268.1104,
      "mean_anomaly_deg": 91.9509,
      "mean_motion_rev_day": 14.98335642
    },
    {
      "epoch": "2026-03-29T04:57:34.700832Z",
      "apogee_km": 575.4013454654078,
      "perigee_km": 568.6513468236326,
      "latitude_deg": -2.911603242227028e-05,
      "longitude_deg": -135.5835633168744,
      "height_km": 574.6249189610178,
      "semi_major_axis_km": 6950.16334614452,
      "eccentricity": 0.0004856,
      "inclination_deg": 70.0008,
      "raan_deg": 125.4271,
      "arg_perigee_deg": 267.1224,
      "mean_anomaly_deg": 92.9379,
      "mean_motion_rev_day": 14.98339554
    },
    {
      "epoch": "2026-03-30T04:59:35.666016Z",
      "apogee_km": 575.2912260131989,
      "perigee_km": 568.7659935288084,
      "latitude_deg": 2.6178715968289835e-05,
      "longitude_deg": -139.59998919728986,
      "height_km": 574.6103490720433,
      "semi_major_axis_km": 6950.165609771003,
      "eccentricity": 0.00046943,
      "inclination_deg": 70.001,
      "raan_deg": 122.9017,
      "arg_perigee_deg": 267.3172,
      "mean_anomaly_deg": 92.745,
      "mean_motion_rev_day": 14.98338822
    },
    {
      "epoch": "2026-03-30T11:24:07.915968Z",
      "apogee_km": 575.3552436497666,
      "perigee_km": 568.7258862811987,
      "latitude_deg": 4.8725783600499055e-05,
      "longitude_deg": 123.32983790716159,
      "height_km": 574.6628237657127,
      "semi_major_axis_km": 6950.177564965482,
      "eccentricity": 0.00047692,
      "inclination_deg": 70.0008,
      "raan_deg": 122.2291,
      "arg_perigee_deg": 266.6587,
      "mean_anomaly_deg": 93.4027,
      "mean_motion_rev_day": 14.98334956
    },
    {
      "epoch": "2026-03-30T19:24:48.212640Z",
      "apogee_km": 575.2158341017557,
      "perigee_km": 568.8280820065875,
      "latitude_deg": 4.331412371722254e-05,
      "longitude_deg": 1.990725506928301,
      "height_km": 574.6538513519591,
      "semi_major_axis_km": 6950.158958054171,
      "eccentricity": 0.00045954,
      "inclination_deg": 70.0009,
      "raan_deg": 121.3869,
      "arg_perigee_deg": 266.3569,
      "mean_anomaly_deg": 93.7065,
      "mean_motion_rev_day": 14.98340973
    },
    {
      "epoch": "2026-03-31T08:13:52.720320Z",
      "apogee_km": 575.37150375273,
      "perigee_km": 568.7132319183438,
      "latitude_deg": -2.725423568326307e-05,
      "longitude_deg": 167.8495054461541,
      "height_km": 574.6832841016728,
      "semi_major_axis_km": 6950.179367835537,
      "eccentricity": 0.000479,
      "inclination_deg": 70.0008,
      "raan_deg": 120.0409,
      "arg_perigee_deg": 266.3519,
      "mean_anomaly_deg": 93.7092,
      "mean_motion_rev_day": 14.98334373
    },
    {
      "epoch": "2026-04-01T19:28:50.131776Z",
      "apogee_km": 575.3026413742273,
      "perigee_km": 568.7625317932516,
      "latitude_deg": 3.9725423970766904e-05,
      "longitude_deg": -6.041519315340147,
      "height_km": 574.7177055844207,
      "semi_major_axis_km": 6950.169586583739,
      "eccentricity": 0.0004705,
      "inclination_deg": 70.0003,
      "raan_deg": 116.3367,
      "arg_perigee_deg": 265.5077,
      "mean_anomaly_deg": 94.5545,
      "mean_motion_rev_day": 14.98337536
    },
    {
      "epoch": "2026-04-02T09:54:02.553120Z",
      "apogee_km": 575.4278699267206,
      "perigee_km": 568.6319966993278,
      "latitude_deg": -8.896864214845371e-06,
      "longitude_deg": 135.54979484126488,
      "height_km": 574.6870665556612,
      "semi_major_axis_km": 6950.166933313024,
      "eccentricity": 0.0004889,
      "inclination_deg": 70.0001,
      "raan_deg": 114.822,
      "arg_perigee_deg": 266.1523,
      "mean_anomaly_deg": 93.9077,
      "mean_motion_rev_day": 14.98338394
    },
    {
      "epoch": "2026-04-03T11:32:11.212512Z",
      "apogee_km": 575.4383057123232,
      "perigee_km": 568.5825412908334,
      "latitude_deg": -5.69324423018498e-05,
      "longitude_deg": 107.26727464833786,
      "height_km": 574.6124925917544,
      "semi_major_axis_km": 6950.1474235015785,
      "eccentricity": 0.00049321,
      "inclination_deg": 69.9999,
      "raan_deg": 112.1284,
      "arg_perigee_deg": 267.1083,
      "mean_anomaly_deg": 92.9511,
      "mean_motion_rev_day": 14.98344703
    },
    {
      "epoch": "2026-04-04T09:58:04.353024Z",
      "apogee_km": 575.5832835039373,
      "perigee_km": 568.4977165462105,
      "latitude_deg": 8.418221688320889e-05,
      "longitude_deg": 127.51748048620271,
      "height_km": 574.3692723047676,
      "semi_major_axis_km": 6950.177500025074,
      "eccentricity": 0.00050974,
      "inclination_deg": 69.9995,
      "raan_deg": 109.7712,
      "arg_perigee_deg": 271.6239,
      "mean_anomaly_deg": 88.4337,
      "mean_motion_rev_day": 14.98334977
    },
    {
      "epoch": "2026-04-05T14:00:03.000384Z",
      "apogee_km": 575.3195214729631,
      "perigee_km": 568.7090935613578,
      "latitude_deg": 1.2422585110622606,
      "longitude_deg": -117.52274884568364,
      "height_km": 574.3029761038416,
      "semi_major_axis_km": 6950.151307517161,
      "eccentricity": 0.00047556,
      "inclination_deg": 69.9996,
      "raan_deg": 106.8264,
      "arg_perigee_deg": 268.9011,
      "mean_anomaly_deg": 269.7238,
      "mean_motion_rev_day": 14.98343447
    },
    {
      "epoch": "2026-04-05T18:00:51.591168Z",
      "apogee_km": 580.7087172597339,
      "perigee_km": 565.8465927273583,
      "latitude_deg": 1.852021485757955e-05,
      "longitude_deg": 2.1422280730567302,
      "height_km": 582.2451007456244,
      "semi_major_axis_km": 6951.414654993546,
      "eccentricity": 0.001069,
      "inclination_deg": 70.0025,
      "raan_deg": 106.4089,
      "arg_perigee_deg": 208.3872,
      "mean_anomaly_deg": 151.6706,
      "mean_motion_rev_day": 14.97935003
    },
    {
      "epoch": "2026-04-06T06:00:02.000160Z",
      "apogee_km": 575.3772564627161,
      "perigee_km": 568.6718795851184,
      "latitude_deg": 6.0568215187104615,
      "longitude_deg": -1.6080025772122435,
      "height_km": 574.0338705534909,
      "semi_major_axis_km": 6950.161568023917,
      "eccentricity": 0.00048239,
      "inclination_deg": 70.0001,
      "raan_deg": 105.1455,
      "arg_perigee_deg": 266.3858,
      "mean_anomaly_deg": 267.1472,
      "mean_motion_rev_day": 14.98340129
    },
    {
      "epoch": "2026-04-07T18:04:48.125856Z",
      "apogee_km": 574.7187087255543,
      "perigee_km": 569.3740177192367,
      "latitude_deg": 4.455863311278285e-05,
      "longitude_deg": -5.871617162487335,
      "height_km": 574.8768195688333,
      "semi_major_axis_km": 6950.183363222395,
      "eccentricity": 0.0003845,
      "inclination_deg": 70.0012,
      "raan_deg": 101.3546,
      "arg_perigee_deg": 261.3458,
      "mean_anomaly_deg": 98.7266,
      "mean_motion_rev_day": 14.98333081
    },
    {
      "epoch": "2026-04-08T10:06:08.265600Z",
      "apogee_km": 575.1094649369006,
      "perigee_km": 568.9473093013721,
      "latitude_deg": 7.814515753547209e-05,
      "longitude_deg": 111.45366649219672,
      "height_km": 574.9308545946927,
      "semi_major_axis_km": 6950.165387119136,
      "eccentricity": 0.00044331,
      "inclination_deg": 70.001,
      "raan_deg": 99.6718,
      "arg_perigee_deg": 261.1572,
      "mean_anomaly_deg": 98.9086,
      "mean_motion_rev_day": 14.98338894
    },
    {
      "epoch": "2026-04-09T20:00:01.999008Z",
      "apogee_km": 575.4302491442268,
      "perigee_km": 568.8927983527892,
      "latitude_deg": 51.75088291993404,
      "longitude_deg": -14.639315290651549,
      "height_km": 582.8437778554348,
      "semi_major_axis_km": 6950.298523748508,
      "eccentricity": 0.0004703,
      "inclination_deg": 70.0006,
      "raan_deg": 96.111,
      "arg_perigee_deg": 263.5838,
      "mean_anomaly_deg": 152.9429,
      "mean_motion_rev_day": 14.98295842
    },
    {
      "epoch": "2026-04-10T12:00:02.000160Z",
      "apogee_km": 575.2461457187028,
      "perigee_km": 568.8130715057714,
      "latitude_deg": 47.46565210900437,
      "longitude_deg": 98.92678387408893,
      "height_km": 581.4035486174531,
      "semi_major_axis_km": 6950.166608612237,
      "eccentricity": 0.0004628,
      "inclination_deg": 70.0004,
      "raan_deg": 94.43,
      "arg_perigee_deg": 268.036,
      "mean_anomaly_deg": 143.4443,
      "mean_motion_rev_day": 14.98338499
    },
    {
      "epoch": "2026-04-11T16:36:43.056000Z",
      "apogee_km": 575.4318456401752,
      "perigee_km": 568.724887811285,
      "latitude_deg": 6.787523920101376e-05,
      "longitude_deg": 2.3358172855954966,
      "height_km": 574.8001769896862,
      "semi_major_axis_km": 6950.21536672573,
      "eccentricity": 0.0004825,
      "inclination_deg": 70.0001,
      "raan_deg": 91.4232,
      "arg_perigee_deg": 264.9917,
      "mean_anomaly_deg": 95.0692,
      "mean_motion_rev_day": 14.98322732
    },
    {
      "epoch": "2026-04-12T16:00:01.999584Z",
      "apogee_km": 574.637442492949,
      "perigee_km": 569.4114770881042,
      "latitude_deg": -32.95406932012286,
      "longitude_deg": -158.33719711532203,
      "height_km": 582.2650353046068,
      "semi_major_axis_km": 6950.161459790526,
      "eccentricity": 0.00037596,
      "inclination_deg": 70.0,
      "raan_deg": 88.9679,
      "arg_perigee_deg": 267.3365,
      "mean_anomaly_deg": 307.7962,
      "mean_motion_rev_day": 14.98340164
    }
  ]
}